[{"OBJECT_NAME":"SHIYAN-3 (SY-3)","OBJECT_ID":"2008-056A","EPOCH":"2026-03-09T16:28:21.411552","MEAN_MOTION":14.30765435,"ECCENTRICITY":0.00146908,"INCLINATION":98.6178,"RA_OF_ASC_NODE":96.1558,"ARG_OF_PERICENTER":69.2006,"MEAN_ANOMALY":291.0749,"EPHEMERIS_TYPE":0,"CLASSIFICATION_TYPE":"U","NORAD_CAT_ID":33433,"ELEMENT_SET_NO":999,"REV_AT_EPOCH":90457,"BSTAR":0.00010019007,"MEAN_MOTION_DOT":2.19e-6,"MEAN_MOTION_DDOT":0},{"OBJECT_NAME":"FENGYUN 1C DEB","OBJECT_ID":"1999-025VA","EPOCH":"2026-03-09T18:19:21.135648","MEAN_MOTION":14.49888116,"ECCENTRICITY":0.01042723,"INCLINATION":98.7545,"RA_OF_ASC_NODE":345.303,"ARG_OF_PERICENTER":230.8884,"MEAN_ANOMALY":188.7746,"EPHEMERIS_TYPE":0,"CLASSIFICATION_TYPE":"U","NORAD_CAT_ID":30193,"ELEMENT_SET_NO":999,"REV_AT_EPOCH":428,"BSTAR":0.00080094212,"MEAN_MOTION_DOT":3.265e-5,"MEAN_MOTION_DDOT":0}]
